#aV2009  7 18  0  0   .00000000      96 DD+AD WGS84 FIT  NGA
## 1540 518400.00000000   900.00000000 55030  .0000000000000
+   31     1  2  3  4  6  7  8  9 10 11 12 13 14 15 16 17 18
+         19 20 21 22 23 24 25 26 27 28 29 30 31 32  0  0  0
+          0  0  0  0  0  0  0  0  0  0  0  0  0  0  0  0  0
+          0  0  0  0  0  0  0  0  0  0  0  0  0  0  0  0  0
+          0  0  0  0  0  0  0  0  0  0  0  0  0  0  0  0  0
++         0  0  0  0  0  0  0  0  0  0  0  0  0  0  0  0  0
++         0  0  0  0  0  0  0  0  0  0  0  0  0  0  0  0  0
++         0  0  0  0  0  0  0  0  0  0  0  0  0  0  0  0  0
++         0  0  0  0  0  0  0  0  0  0  0  0  0  0  0  0  0
++         0  0  0  0  0  0  0  0  0  0  0  0  0  0  0  0  0
%c cc cc ccc ccc cccc cccc cccc cccc ccccc ccccc ccccc ccccc
%c cc cc ccc ccc cccc cccc cccc cccc ccccc ccccc ccccc ccccc
%f  0.0000000  0.000000000  0.00000000000  0.000000000000000
%f  0.0000000  0.000000000  0.00000000000  0.000000000000000
%i    0    0    0    0      0      0      0      0         0
%i    0    0    0    0      0      0      0      0         0
/*      NGA, ST. LOUIS,MO.                                  
/*   EPHEMERIS COMPUTED FROM  3 DAYS OF DATA                
/* CCCCCCCCCCCCCCCCCCCCCCCCCCCCCCCCCCCCCCCCCCCCCCCCCCCCCCCCC
/* CCCCCCCCCCCCCCCCCCCCCCCCCCCCCCCCCCCCCCCCCCCCCCCCCCCCCCCCC
*  2009  7 18 16 45   .00000000                                                 
P  1  15033.620804   4208.176920  21406.152907    -64.829147                    
V  1    199.531293  27388.361951  -5397.291410       .032020                    
P  2   3270.530797  17855.048760  19440.339916    160.599257                    
V  2 -22444.870615 -10631.615922  13065.766262       .017764                    
P  3    465.250518 -18550.357389 -19197.177836    421.759814                    
V  3  20108.037389 -13145.934581  13772.608850       .050126                    
P  4  -9767.983437  12344.624077  21280.451074   -180.435837                    
V  4 -23807.679728 -13547.233052  -2687.148247      -.165531                    
P  6   6285.269600 -19253.337474 -16954.756086    195.921460                    
V  6  19600.745923 -10275.281514  18797.907307       .107247                    
P  7 -23940.576343  -5006.406802 -10542.936040     15.013285                    
V  7 -10566.674030  -8358.695718  27895.404830      -.006682                    
P  8 -17401.249904   4337.988542 -19812.861434   -212.503896                    
V  8 -20583.302331 -13875.938372  14582.835714      -.017226                    
P  9  20425.812715  15804.636943  -7024.244693     67.189982                    
V  9  -8052.020415  -1854.595017 -30407.064400       .020772                    
P 10   1556.916173  26229.264145  -2476.884690    -19.444922                    
V 10  -3195.351541   2958.494460  31700.704066      -.007723                    
P 11 -23241.737740 -11947.683091  -5902.146330    -11.148961                    
V 11   8246.538990  -2236.979399 -28623.554302      -.016495                    
P 12  12010.346753  16441.534140  17183.071515   -248.620671                    
V 12  -1284.766969  21648.524961 -19764.599692       .061324                    
P 13 -23796.849827   4542.510790  10770.092760    301.637203                    
V 13  11538.498346  -7769.033487  28414.789040       .006887                    
P 14  21243.866168 -15158.577142   4677.979572    -78.161496                    
V 14   6033.367004  -1038.013861 -31705.139586       .056000                    
P 15   6180.316843  14112.906824 -21607.948463   -309.169193                    
V 15 -23521.818098  14275.161063   2655.471447      -.024507                    
P 16   2381.047644 -26124.758869   3237.722292     31.597559                    
V 16   2705.006184   4089.001657  31750.773644      -.036229                    
P 17 -21372.921396  15195.982645   3565.573029     71.238959                    
V 17  -5354.082827   -349.960992 -31425.019270       .024743                    
P 18  15326.133874  -4202.482431 -20999.826401    -38.963654                    
V 18    456.460304  27347.284501  -5461.004039       .031309                    
P 19  -7854.159991 -13120.422362 -21662.836697     18.592756                    
V 19  24695.677831 -12446.922296  -1152.690234      -.013686                    
P 20 -13333.396995 -14820.811135  17442.531998     77.010210                    
V 20   1056.003688 -22504.633424 -18148.324232      -.009784                    
P 21  23486.900007   3007.640525 -12363.969326      2.021214                    
V 21  12502.799609  10259.459013  25046.981609      -.021913                    
P 22  12211.270427 -16843.955247 -16303.932266    195.216860                    
V 22   1985.857730  21136.374873 -20229.136116      -.006134                    
P 23 -17335.804017  -5242.273979  19483.058997    390.010608                    
V 23  20748.832086 -13467.841252  14512.501428      -.001413                    
P 24  22948.742260  12982.074190  -1569.466517    205.379686                    
V 24     49.847926   4015.572052  31596.613557       .029292                    
P 25 -24731.495648  -8940.958407  -2534.802243    514.071593                    
V 25  -2256.936522  -3939.093859  31870.854517       .171897                    
P 26  23760.928735  -3252.650722 -12530.920119     64.743678                    
V 26 -12634.444710   7745.433338 -26687.855295       .001410                    
P 27  17301.987308  16521.905997 -10852.220820     66.681260                    
V 27 -14306.085006  -4408.503148 -27787.186880       .032507                    
P 28 -12574.363388  14291.660937 -17953.681844    -25.977918                    
V 28  -1408.297752 -23804.847329 -17848.834935      -.001780                    
P 29  23141.705403  -2788.447209  12796.511660     40.619501                    
V 29 -12881.034112   9932.683840  25709.701771       .034255                    
P 30  15133.897569   5277.688750  20815.148086    161.960166                    
V 30    892.482525  27314.034148  -7362.416554       .028168                    
P 31   7148.302028 -13231.639890  22096.193756    -63.940360                    
V 31  24120.456954  13263.381224    279.049002      -.004732                    
P 32  -7958.041381 -21783.964702  13573.039814    229.936191                    
V 32   2979.712563 -16320.511956 -24913.655174      -.061729                    
EOF
